COSMOS 2251 DEB         
1 35031U 93036AGU 26059.81823846  .00000425  00000+0  14764-3 0  9990
2 35031  74.0369 115.4074 0019266 198.1978 161.8489 14.38393141664068
COSMOS 2251 DEB         
1 35032U 93036AGV 26062.11551104  .00004763  00000+0  98013-3 0  9991
2 35032  73.8496 212.3789 0066162  44.6685  72.3516 14.59451201888468
COSMOS 2251 DEB         
1 35033U 93036AGW 26033.36929885  .00002083  00000+0  52978-3 0  9995
2 35033  74.0255  79.4000 0013341 184.2832 175.8217 14.51289638666768
COSMOS 2251 DEB         
1 35038U 93036AHB 26062.51884240  .00003978  00000+0  15731-2 0  9993
2 35038  74.1057 257.3843 0112481 221.4253 167.8739 14.25865554867202
COSMOS 2251 DEB         
1 35043U 93036AHG 26060.83230382  .00033909  00000+0  40334-2 0  9998
2 35043  73.9472 249.1383 0088613  77.3723 283.7344 14.81417781685882
COSMOS 2251 DEB         
1 35045U 93036AHJ 26058.02220840  .00000881  00000+0  52863-3 0  9990
2 35045  73.7162 277.9565 0181611 148.8646 212.3402 14.00562845857112
COSMOS 2251 DEB         
1 35060U 93036AHP 26062.45275018  .00001082  00000+0  33844-3 0  9998
2 35060  74.0349  94.7955 0017641 170.5426 189.6066 14.41808369884051
COSMOS 2251 DEB         
1 35061U 93036AHQ 26062.65312354  .00005139  00000+0  87784-3 0  9995
2 35061  74.0461 149.3755 0041794 243.1729 116.5165 14.68603355897624
COSMOS 2251 DEB         
1 35062U 93036AHR 26060.69179947  .00003720  00000+0  15051-2 0  9998
2 35062  74.0829 311.5867 0126569 290.6485  68.1127 14.23872554866222
COSMOS 2251 DEB         
1 35065U 93036AHU 26062.29121417  .00001871  00000+0  53123-3 0  9996
2 35065  74.0196  43.9265 0018858 158.0576 202.1394 14.46028081695150
COSMOS 2251 DEB         
1 35071U 93036AJA 26042.36976713  .00015602  00000+0  10408-2 0  9991
2 35071  73.9325  48.6140 0070044 290.1885  69.1780 15.05018922684482
COSMOS 2251 DEB         
1 35073U 93036AJC 26048.08717896  .00067409  00000+0  44075-2 0  9992
2 35073  73.9975 194.6296 0015625 301.2452  58.7207 15.07343553684769
COSMOS 2251 DEB         
1 35284U 93036AJN 26059.16029411  .00000421  00000+0  14635-3 0  9997
2 35284  74.0482 121.8690 0016608 188.8665 201.8079 14.38415191666393
COSMOS 2251 DEB         
1 35287U 93036AJR 26062.59848395  .00000410  00000+0  14851-3 0  9999
2 35287  74.0296 127.5502 0018660 212.6748 302.5155 14.36453474880534
COSMOS 2251 DEB         
1 35288U 93036AJS 26059.13633865  .00007430  00000+0  13313-2 0  9990
2 35288  73.9461 225.2804 0036337  76.9202 283.6018 14.66520220890125
COSMOS 2251 DEB         
1 35290U 93036AJU 26060.55319702  .00016498  00000+0  20177-2 0  9992
2 35290  74.0015 263.4450 0003482 357.1189   2.9969 14.83228059891255
